ONEWEB-0156             
1 48052U 21025L   24324.28212695 -.00000172  00000+0 -50647-3 0  9995
2 48052  87.8920  74.5622 0001630 103.3300 256.8011 13.13470765178108
ONEWEB-0161             
1 48053U 21025M   24324.25516237 -.00000119  00000+0 -36025-3 0  9997
2 48053  87.8924  74.5785 0001474 104.4438 255.6855 13.13470430178037
ONEWEB-0158             
1 48054U 21025N   24324.29323924  .00000008  00000+0 -14347-4 0  9991
2 48054  87.8920  74.5578 0001773 103.0200 257.1128 13.13470945178163
ONEWEB-0157             
1 48055U 21025P   24324.54557168  .00000270  00000+0  70457-3 0  9992
2 48055  87.8923  74.5205 0001238 109.9705 250.1557 13.13473081178135
ONEWEB-0162             
1 48056U 21025Q   24324.28055215  .00000032  00000+0  53723-4 0  9994
2 48056  87.8918  74.5670 0001635 104.5628 255.5683 13.13469898178075
ONEWEB-0155             
1 48057U 21025R   24324.30118628  .00000477  00000+0  12710-2 0  9998
2 48057  87.8919  74.5757 0001477  97.9202 262.2095 13.13472599178210
ONEWEB-0149             
1 48058U 21025S   24324.55033469  .00000121  00000+0  29602-3 0  9990
2 48058  87.8923  74.5217 0001786 108.7046 251.4277 13.13472758178058
ONEWEB-0148             
1 48059U 21025T   24324.28689542  .00003896  00000+0  10631-1 0  9992
2 48059  87.8922  74.5900 0001656 127.4799 232.6481 13.13450864178148
ONEWEB-0160             
1 48060U 21025U   24324.30275383  .00002291  00000+0  62365-2 0  9991
2 48060  87.8918  74.5830 0002643  91.3448 268.7984 13.13488159178094
ONEWEB-0163             
1 48061U 21025V   24324.28849452  .00000236  00000+0  61173-3 0  9997
2 48061  87.8919  74.5739 0001368 108.9248 251.2029 13.13469746178212
ONEWEB-0159             
1 48062U 21025W   24324.27736737 -.00000258  00000+0 -74244-3 0  9997
2 48062  87.8920  74.5581 0001506 109.2347 250.8945 13.13470460178136
ONEWEB-0164             
1 48063U 21025X   24324.25992195  .00000437  00000+0  11610-2 0  9992
2 48063  87.8917  74.5718 0001622  96.2074 263.9240 13.13468159178119
ONEWEB-0167             
1 48064U 21025Y   24324.28979869  .00000221  00000+0  57053-3 0  9992
2 48064  87.8919  74.5804 0001521 107.6310 252.4985 13.13480709178109
ONEWEB-0166             
1 48065U 21025Z   24324.53923186  .00000403  00000+0  10674-2 0  9991
2 48065  87.8921  74.5078 0001736 109.3606 250.7711 13.13471781178211
ONEWEB-0151             
1 48066U 21025AA  24324.54081146  .00000381  00000+0  10083-2 0  9993
2 48066  87.8923  74.5247 0001612  97.6611 262.4701 13.13473115178155
ONEWEB-0170             
1 48067U 21025AB  24324.54875028  .00000143  00000+0  35649-3 0  9996
2 48067  87.8924  74.5265 0001833  84.7255 275.4083 13.13472121178112
ONEWEB-0168             
1 48068U 21025AC  24324.22975627  .00000097  00000+0  23143-3 0  9992
2 48068  87.8927  74.5644 0001572 103.6319 256.4985 13.13470624178081
ONEWEB-0173             
1 48069U 21025AD  24324.29799977  .00000388  00000+0  10271-2 0  9992
2 48069  87.8922  74.5602 0001151  99.7206 260.4053 13.13470250178338
ONEWEB-0171             
1 48070U 21025AE  24324.25833090 -.00000119  00000+0 -36051-3 0  9994
2 48070  87.8924  74.6042 0001549  98.6812 261.4493 13.13470668178144
ONEWEB-0172             
1 48071U 21025AF  24324.54241792  .00000268  00000+0  69841-3 0  9995
2 48071  87.8927  74.5144 0001414  99.0523 261.0766 13.13469754179071
ONEWEB-0174             
1 48072U 21025AG  24324.29641403  .00000310  00000+0  81448-3 0  9996
2 48072  87.8923  74.5776 0001577 105.4335 254.6968 13.13472073178363
ONEWEB-0175             
1 48073U 21025AH  24324.55350918  .00000059  00000+0  12641-3 0  9993
2 48073  87.8921  74.5055 0001632  88.3425 271.7891 13.13472934178050
ONEWEB-0177             
1 48074U 21025AJ  24324.26150732 -.00000202  00000+0 -58918-3 0  9993
2 48074  87.8920  74.5738 0001311 110.7457 249.3812 13.13470275178204
ONEWEB-0178             
1 48075U 21025AK  24324.27909351 -.00000023  00000+0 -97895-4 0  9993
2 48075  87.8926  74.5990 0001415 104.2723 255.8563 13.13468686178253
ONEWEB-0108             
1 48076U 21025AL  24324.54398495  .00000290  00000+0  75930-3 0  9994
2 48076  87.8922  74.5143 0001865 104.9170 255.2166 13.13473618178212
ONEWEB-0169             
1 48077U 21025AM  24324.27102522 -.00000112  00000+0 -34059-3 0  9991
2 48077  87.8921  74.5824 0001848 105.1689 254.9644 13.13472643176837
ONEWEB-0176             
1 48210U 21031A   24324.48970068 -.00000199  00000+0 -57052-3 0  9991
2 48210  87.9030  43.9791 0001781 100.2656 259.8675 13.14500077172813
ONEWEB-0184             
1 48211U 21031B   24324.46276841  .00000692  00000+0  18323-2 0  9991
2 48211  87.9029  43.9627 0001470  69.0583 291.0704 13.14498817172781
ONEWEB-0179             
1 48212U 21031C   24324.50873656 -.00000062  00000+0 -20277-3 0  9999
2 48212  87.9030  43.9625 0001702 104.1123 256.0196 13.14500306172830
ONEWEB-0180             
1 48213U 21031D   24324.23759115 -.00000349  00000+0 -97484-3 0  9995
2 48213  87.9029  44.0111 0001239 107.9869 252.1396 13.14493996172682
ONEWEB-0218             
1 48214U 21031E   24324.48812047 -.00000326  00000+0 -91371-3 0  9991
2 48214  87.9028  43.9620 0001169  66.6228 293.5025 13.14501517172875
ONEWEB-0209             
1 48215U 21031F   24324.47702802 -.00000048  00000+0 -16521-3 0  9993
2 48215  87.9031  44.0014 0001659 105.9338 254.1975 13.14500251172873
ONEWEB-0198             
1 48216U 21031G   24324.46116777  .00000253  00000+0  64894-3 0  9995
2 48216  87.9033  44.0083 0001352  96.2805 263.8479 13.14504208172987
ONEWEB-0189             
1 48217U 21031H   24324.47385088  .00000022  00000+0  23824-4 0  9993
2 48217  87.9031  43.9804 0001250  97.7213 262.4059 13.14504303172728
ONEWEB-0196             
1 48218U 21031J   24324.52776443  .00000143  00000+0  35011-3 0  9993
2 48218  87.9036  43.9769 0001685  99.5613 260.5708 13.14501169172738
ONEWEB-0183             
1 48219U 21031K   24324.50238822 -.00000075  00000+0 -23802-3 0  9997
2 48219  87.9029  43.9965 0001852 109.4444 250.6886 13.14500583172824
ONEWEB-0185             
1 48220U 21031L   24324.60468397  .00000233  00000+0  59382-3 0  9998
2 48220  87.9032  43.9475 0001599 109.3989 250.7314 13.14500821172762
ONEWEB-0187             
1 48221U 21031M   24324.49843563 -.00000094  00000+0 -28892-3 0  9997
2 48221  87.9032  44.0029 0001740 105.7144 254.4178 13.14500180172768
ONEWEB-0192             
1 48222U 21031N   24324.47860691 -.00000098  00000+0 -29780-3 0  9998
2 48222  87.9032  44.0045 0001669  99.0064 261.1254 13.14504069172673
ONEWEB-0219             
1 48223U 21031P   24324.22964664  .00000234  00000+0  59578-3 0  9995
2 48223  87.9035  44.0279 0001574 106.8206 253.3096 13.14504012172840
ONEWEB-0202             
1 48224U 21031Q   24324.51509397  .00000197  00000+0  49796-3 0  9995
2 48224  87.9027  43.9883 0001041  84.6112 275.5136 13.14502521172865
ONEWEB-0204             
1 48225U 21031R   24324.47305550  .00000009  00000+0 -10517-4 0  9999
2 48225  87.9031  44.0087 0002023 108.9764 251.1585 13.14503027172751
ONEWEB-0205             
1 48226U 21031S   24324.52460854  .00000235  00000+0  60059-3 0  9990
2 48226  87.9030  43.9698 0001586 107.2381 252.8922 13.14501112172775
ONEWEB-0206             
1 48227U 21031T   24324.49763405 -.00000322  00000+0 -90260-3 0  9991
2 48227  87.9027  43.9608 0001636 109.2130 250.9177 13.14501020172727
ONEWEB-0182             
1 48228U 21031U   24324.49287756 -.00000139  00000+0 -40817-3 0  9991
2 48228  87.9031  43.9953 0001914 104.0333 256.1009 13.14499918172930
ONEWEB-0186             
1 48229U 21031V   24324.27564015  .00000057  00000+0  11794-3 0  9993
2 48229  87.9028  44.0013 0001725 100.5888 259.5436 13.14501955172859
ONEWEB-0181             
1 48230U 21031W   24324.48177964 -.00000183  00000+0 -52822-3 0  9990
2 48230  87.9033  44.0308 0001562 100.4187 259.7119 13.14504503172733
ONEWEB-0188             
1 48231U 21031X   24324.51984544  .00000261  00000+0  66818-3 0  9990
2 48231  87.9028  44.0174 0001762 103.3091 256.8236 13.14500954172641
ONEWEB-0220             
1 48232U 21031Y   24324.48335512 -.00000294  00000+0 -82630-3 0  9990
2 48232  87.9025  43.9800 0001545 112.3887 247.7407 13.14500026172903
ONEWEB-0165             
1 48233U 21031Z   24324.51190711  .00000235  00000+0  59811-3 0  9993
2 48233  87.9027  44.0012 0001582 104.2038 255.9268 13.14501899172862
ONEWEB-0199             
1 48234U 21031AA  24324.49604633 -.00000110  00000+0 -33145-3 0  9990
2 48234  87.9030  43.9715 0001886  98.8312 261.3032 13.14501709172764
ONEWEB-0203             
1 48235U 21031AB  24324.48653817 -.00000206  00000+0 -59079-3 0  9998
2 48235  87.9029  43.9752 0001884  88.5271 271.6075 13.14500080172775
ONEWEB-0197             
1 48236U 21031AC  24324.46196468  .00000220  00000+0  55786-3 0  9996
2 48236  87.9034  43.9904 0001975 109.6321 250.5022 13.14504171172686
ONEWEB-0194             
1 48237U 21031AD  24324.51667317  .00000199  00000+0  50288-3 0  9996
2 48237  87.9030  43.9737 0001951  93.9988 266.1365 13.14500522172864
ONEWEB-0193             
1 48238U 21031AE  24324.45640748  .00000074  00000+0  16637-3 0  9991
2 48238  87.9034  43.9937 0001665  97.7697 262.3622 13.14501447172807
ONEWEB-0191             
1 48239U 21031AF  24324.46750965  .00000119  00000+0  28629-3 0  9990
2 48239  87.9030  43.9704 0001642  98.1748 261.9568 13.14503857172668
ONEWEB-0195             
1 48240U 21031AG  24324.52065474  .00000252  00000+0  64469-3 0  9993
2 48240  87.9028  43.9585 0001334 100.8228 259.3052 13.14503060172650
ONEWEB-0201             
1 48241U 21031AH  24324.50952439  .00000064  00000+0  13904-3 0  9997
2 48241  87.9031  44.0003 0001604 104.7449 255.3859 13.14501899172884
ONEWEB-0207             
1 48242U 21031AJ  24324.48893159 -.00000159  00000+0 -46451-3 0  9998
2 48242  87.9029  43.9680 0001775 109.9491 250.1829 13.14503125172798
